{
  "type": "FeatureCollection",
  "features": [
    {
      "type": "Feature",
      "properties": {
        "norad_id": 38250,
        "name": "BEIDOU-2 M3 (C11)",
        "group": "beidou",
        "lat": -49.60994602931595,
        "lon": -101.76483857687899,
        "alt_km": 21469.410230502745,
        "timestamp": "2025-12-19T04:59:48.571186+00:00",
        "meta_object_name": "BEIDOU-2 M3 (C11)",
        "meta_object_id": "2012-018A",
        "meta_epoch": "2025-12-18T05:36:36.842400",
        "meta_mean_motion": 1.86230021,
        "meta_eccentricity": 0.00242148,
        "meta_inclination": 55.9152,
        "meta_ra_of_asc_node": 310.9725,
        "meta_arg_of_pericenter": 274.7921,
        "meta_mean_anomaly": 84.917,
        "meta_ephemeris_type": 0,
        "meta_classification_type": "U",
        "meta_norad_cat_id": 38250,
        "meta_element_set_no": 999,
        "meta_rev_at_epoch": 9257,
        "meta_bstar": 0,
        "meta_mean_motion_dot": -8.6e-07,
        "meta_mean_motion_ddot": 0,
        "tle_line1": "1 38250U 12018A   25352.23375975 -.00000086  00000+0  00000+0 0  9991",
        "tle_line2": "2 38250  55.9152 310.9725 0024214 274.7921  84.9170  1.86230021 92574"
      },
      "geometry": {
        "type": "Point",
        "coordinates": [
          -101.76483857687899,
          -49.60994602931595
        ]
      }
    },
    {
      "type": "Feature",
      "properties": {
        "norad_id": 38251,
        "name": "BEIDOU-2 M4 (C12)",
        "group": "beidou",
        "lat": -17.37850675840714,
        "lon": -62.12670633255724,
        "alt_km": 21509.311593183647,
        "timestamp": "2025-12-19T04:59:48.571202+00:00",
        "meta_object_name": "BEIDOU-2 M4 (C12)",
        "meta_object_id": "2012-018B",
        "meta_epoch": "2025-12-18T03:58:46.817760",
        "meta_mean_motion": 1.86229697,
        "meta_eccentricity": 0.00154218,
        "meta_inclination": 55.8167,
        "meta_ra_of_asc_node": 310.2031,
        "meta_arg_of_pericenter": 278.3297,
        "meta_mean_anomaly": 81.4813,
        "meta_ephemeris_type": 0,
        "meta_classification_type": "U",
        "meta_norad_cat_id": 38251,
        "meta_element_set_no": 999,
        "meta_rev_at_epoch": 9257,
        "meta_bstar": 0,
        "meta_mean_motion_dot": -8.6e-07,
        "meta_mean_motion_ddot": 0,
        "tle_line1": "1 38251U 12018B   25352.16581965 -.00000086  00000+0  00000+0 0  9992",
        "tle_line2": "2 38251  55.8167 310.2031 0015421 278.3297  81.4813  1.86229697 92572"
      },
      "geometry": {
        "type": "Point",
        "coordinates": [
          -62.12670633255724,
          -17.37850675840714
        ]
      }
    },
    {
      "type": "Feature",
      "properties": {
        "norad_id": 38775,
        "name": "BEIDOU-2 M6 (C14)",
        "group": "beidou",
        "lat": 6.085875812804437,
        "lon": -115.19290374266969,
        "alt_km": 21558.897809980328,
        "timestamp": "2025-12-19T04:59:48.571213+00:00",
        "meta_object_name": "BEIDOU-2 M6 (C14)",
        "meta_object_id": "2012-050B",
        "meta_epoch": "2025-12-18T09:55:40.044288",
        "meta_mean_motion": 1.8623091,
        "meta_eccentricity": 0.00113703,
        "meta_inclination": 56.3831,
        "meta_ra_of_asc_node": 68.8791,
        "meta_arg_of_pericenter": 343.3858,
        "meta_mean_anomaly": 16.6071,
        "meta_ephemeris_type": 0,
        "meta_classification_type": "U",
        "meta_norad_cat_id": 38775,
        "meta_element_set_no": 999,
        "meta_rev_at_epoch": 8994,
        "meta_bstar": 0,
        "meta_mean_motion_dot": -6.3e-07,
        "meta_mean_motion_ddot": 0,
        "tle_line1": "1 38775U 12050B   25352.41365792 -.00000063  00000+0  00000+0 0  9990",
        "tle_line2": "2 38775  56.3831  68.8791 0011370 343.3858  16.6071  1.86230910 89944"
      },
      "geometry": {
        "type": "Point",
        "coordinates": [
          -115.19290374266969,
          6.085875812804437
        ]
      }
    },
    {
      "type": "Feature",
      "properties": {
        "norad_id": 38953,
        "name": "BEIDOU-2 G6 (C02)",
        "group": "beidou",
        "lat": 0.5645854589713248,
        "lon": -113.09473720646581,
        "alt_km": 35804.517976361516,
        "timestamp": "2025-12-19T04:59:48.571237+00:00",
        "meta_object_name": "BEIDOU-2 G6 (C02)",
        "meta_object_id": "2012-059A",
        "meta_epoch": "2025-12-18T19:13:36.503616",
        "meta_mean_motion": 1.00269156,
        "meta_eccentricity": 0.00082457,
        "meta_inclination": 3.9636,
        "meta_ra_of_asc_node": 75.4496,
        "meta_arg_of_pericenter": 292.1942,
        "meta_mean_anomaly": 92.3789,
        "meta_ephemeris_type": 0,
        "meta_classification_type": "U",
        "meta_norad_cat_id": 38953,
        "meta_element_set_no": 999,
        "meta_rev_at_epoch": 4810,
        "meta_bstar": 0,
        "meta_mean_motion_dot": -1.53e-06,
        "meta_mean_motion_ddot": 0,
        "tle_line1": "1 38953U 12059A   25352.80111694 -.00000153  00000+0  00000+0 0  9990",
        "tle_line2": "2 38953   3.9636  75.4496 0008245 292.1942  92.3789  1.00269156 48101"
      },
      "geometry": {
        "type": "Point",
        "coordinates": [
          -113.09473720646581,
          0.5645854589713248
        ]
      }
    },
    {
      "type": "Feature",
      "properties": {
        "norad_id": 40549,
        "name": "BEIDOU-3S IGSO-1S (C31)",
        "group": "beidou",
        "lat": -29.178213663472018,
        "lon": -90.81642420903327,
        "alt_km": 35874.90187273364,
        "timestamp": "2025-12-19T04:59:48.571251+00:00",
        "meta_object_name": "BEIDOU-3S IGSO-1S (C31)",
        "meta_object_id": "2015-019A",
        "meta_epoch": "2025-12-18T19:55:38.829792",
        "meta_mean_motion": 1.00292047,
        "meta_eccentricity": 0.0036331,
        "meta_inclination": 49.5404,
        "meta_ra_of_asc_node": 297.6395,
        "meta_arg_of_pericenter": 194.0028,
        "meta_mean_anomaly": 349.3621,
        "meta_ephemeris_type": 0,
        "meta_classification_type": "U",
        "meta_norad_cat_id": 40549,
        "meta_element_set_no": 999,
        "meta_rev_at_epoch": 3926,
        "meta_bstar": 0,
        "meta_mean_motion_dot": -1.83e-06,
        "meta_mean_motion_ddot": 0,
        "tle_line1": "1 40549U 15019A   25352.83031053 -.00000183  00000+0  00000+0 0  9999",
        "tle_line2": "2 40549  49.5404 297.6395 0036331 194.0028 349.3621  1.00292047 39264"
      },
      "geometry": {
        "type": "Point",
        "coordinates": [
          -90.81642420903327,
          -29.178213663472018
        ]
      }
    },
    {
      "type": "Feature",
      "properties": {
        "norad_id": 40748,
        "name": "BEIDOU-3S M2S (C58)",
        "group": "beidou",
        "lat": -17.192589306981276,
        "lon": 140.71088844186644,
        "alt_km": 21517.159894427878,
        "timestamp": "2025-12-19T04:59:48.571262+00:00",
        "meta_object_name": "BEIDOU-3S M2S (C58)",
        "meta_object_id": "2015-037A",
        "meta_epoch": "2025-12-11T22:15:26.437248",
        "meta_mean_motion": 1.8622897,
        "meta_eccentricity": 0.00123447,
        "meta_inclination": 55.0397,
        "meta_ra_of_asc_node": 308.4912,
        "meta_arg_of_pericenter": 267.8245,
        "meta_mean_anomaly": 92.025,
        "meta_ephemeris_type": 0,
        "meta_classification_type": "U",
        "meta_norad_cat_id": 40748,
        "meta_element_set_no": 999,
        "meta_rev_at_epoch": 7063,
        "meta_bstar": 0,
        "meta_mean_motion_dot": -8.9e-07,
        "meta_mean_motion_ddot": 0,
        "tle_line1": "1 40748U 15037A   25345.92738932 -.00000089  00000+0  00000+0 0  9997",
        "tle_line2": "2 40748  55.0397 308.4912 0012344 267.8245  92.0250  1.86228970 70636"
      },
      "geometry": {
        "type": "Point",
        "coordinates": [
          140.71088844186644,
          -17.192589306981276
        ]
      }
    },
    {
      "type": "Feature",
      "properties": {
        "norad_id": 40749,
        "name": "BEIDOU-3S M1S (C57)",
        "group": "beidou",
        "lat": 37.28131129297168,
        "lon": -19.628922225122476,
        "alt_km": 21514.452891859983,
        "timestamp": "2025-12-19T04:59:48.571274+00:00",
        "meta_object_name": "BEIDOU-3S M1S (C57)",
        "meta_object_id": "2015-037B",
        "meta_epoch": "2025-12-18T01:31:18.410592",
        "meta_mean_motion": 1.86254045,
        "meta_eccentricity": 0.00035849,
        "meta_inclination": 55.0306,
        "meta_ra_of_asc_node": 308.2705,
        "meta_arg_of_pericenter": 0.3009,
        "meta_mean_anomaly": 359.6859,
        "meta_ephemeris_type": 0,
        "meta_classification_type": "U",
        "meta_norad_cat_id": 40749,
        "meta_element_set_no": 999,
        "meta_rev_at_epoch": 7075,
        "meta_bstar": 0,
        "meta_mean_motion_dot": -8.6e-07,
        "meta_mean_motion_ddot": 0,
        "tle_line1": "1 40749U 15037B   25352.06340753 -.00000086  00000+0  00000+0 0  9998",
        "tle_line2": "2 40749  55.0306 308.2705 0003584   0.3009 359.6859  1.86254045 70751"
      },
      "geometry": {
        "type": "Point",
        "coordinates": [
          -19.628922225122476,
          37.28131129297168
        ]
      }
    }
  ]
}